STARLINK-31870          
1 59787U 24093F   26068.45271618  .00003967  00000+0  15361-3 0  9993
2 59787  43.0031 209.8538 0002303 284.0443  76.0153 15.27576119102668
TEVEL2-7                
1 63238U 25052AE  26068.66113295  .00019244  00000+0  69668-3 0  9998
2 63238  97.4054 324.3041 0008105 124.6830 235.5175 15.28414096 54803
